[
    {
        "postcode": "EC1A 7BE",
        "longitude": -0.100404,
        "latitude": 51.51775
    },
    {
        "postcode": "RM9 4TP",
        "longitude": 0.127884,
        "latitude": 51.539774
    },
    {
        "postcode": "EN5 5RP",
        "longitude": -0.194074,
        "latitude": 51.65044
    },
    {
        "postcode": "DA16 3DN",
        "longitude": 0.102535,
        "latitude": 51.464737
    },
    {
        "postcode": "HA9 9AA",
        "longitude": -0.279243,
        "latitude": 51.563322
    },
    {
        "postcode": "BR1 3NN",
        "longitude": 0.017131,
        "latitude": 51.40827
    },
    {
        "postcode": "NW1 8QL",
        "longitude": -0.142696,
        "latitude": 51.53929
    },
    {
        "postcode": "CR2 7PA",
        "longitude": -0.094105,
        "latitude": 51.36292
    },
    {
        "postcode": "W13 0JX",
        "longitude": -0.329388,
        "latitude": 51.516603
    },
    {
        "postcode": "EN2 7AA",
        "longitude": -0.0909,
        "latitude": 51.653229
    },
    {
        "postcode": "SE9 1DU",
        "longitude": 0.053585,
        "latitude": 51.454777
    },
    {
        "postcode": "E8 1FD",
        "longitude": -0.061489,
        "latitude": 51.548605
    },
    {
        "postcode": "W6 8AB",
        "longitude": -0.223463,
        "latitude": 51.492269
    },
    {
        "postcode": "N8 9DJ",
        "longitude": -0.112143,
        "latitude": 51.585877
    },
    {
        "postcode": "HA3 5AG",
        "longitude": -0.334098,
        "latitude": 51.592484
    },
    {
        "postcode": "RM12 6PL",
        "longitude": 0.235279,
        "latitude": 51.558957
    },
    {
        "postcode": "UB8 1JZ",
        "longitude": -0.478547,
        "latitude": 51.546169
    },
    {
        "postcode": "TW3 2DL",
        "longitude": -0.361534,
        "latitude": 51.46179
    },
    {
        "postcode": "N5 1RA",
        "longitude": -0.104152,
        "latitude": 51.546559
    },
    {
        "postcode": "W8 5SA",
        "longitude": -0.191844,
        "latitude": 51.500994
    },
    {
        "postcode": "KT5 9NX",
        "longitude": -0.279241,
        "latitude": 51.377124
    },
    {
        "postcode": "SW9 8HE",
        "longitude": -0.114669,
        "latitude": 51.462703
    },
    {
        "postcode": "SE6 4RE",
        "longitude": -0.02448,
        "latitude": 51.444671
    },
    {
        "postcode": "SW20 9JT",
        "longitude": -0.206297,
        "latitude": 51.40299
    },
    {
        "postcode": "E13 9AP",
        "longitude": 0.034504,
        "latitude": 51.536755
    },
    {
        "postcode": "IG6 1NA",
        "longitude": 0.089028,
        "latitude": 51.585913
    },
    {
        "postcode": "TW9 1EZ",
        "longitude": -0.302032,
        "latitude": 51.463093
    },
    {
        "postcode": "SE1 5AA",
        "longitude": -0.074664,
        "latitude": 51.486999
    },
    {
        "postcode": "SM1 1JA",
        "longitude": -0.191116,
        "latitude": 51.359583
    },
    {
        "postcode": "E14 7JE",
        "longitude": -0.03938,
        "latitude": 51.512312
    },
    {
        "postcode": "E17 7LP",
        "longitude": -0.019941,
        "latitude": 51.583018
    },
    {
        "postcode": "SW12 8PB",
        "longitude": -0.163512,
        "latitude": 51.446357
    },
    {
        "postcode": "SW1H 0BB",
        "longitude": -0.133879,
        "latitude": 51.49961
    }
]